{
    "links": {
        "self": "http://www.neowsapp.com/rest/v1/neo/3547769?api_key=iIulBulltgU6a56xZRHN4H3l9WmuAYTsLGpBGhQ2"
    },
    "id": "3547769",
    "neo_reference_id": "3547769",
    "name": "(2010 SC17)",
    "designation": "2010 SC17",
    "nasa_jpl_url": "http://ssd.jpl.nasa.gov/sbdb.cgi?sstr=3547769",
    "absolute_magnitude_h": 22.7,
    "estimated_diameter": {
        "kilometers": {
            "estimated_diameter_min": 0.0766575574,
            "estimated_diameter_max": 0.1714115092
        },
        "meters": {
            "estimated_diameter_min": 76.6575573531,
            "estimated_diameter_max": 171.4115092306
        },
        "miles": {
            "estimated_diameter_min": 0.0476327831,
            "estimated_diameter_max": 0.1065101409
        },
        "feet": {
            "estimated_diameter_min": 251.5011804664,
            "estimated_diameter_max": 562.3737359442
        }
    },
    "is_potentially_hazardous_asteroid": false,
    "close_approach_data": [
        {
            "close_approach_date": "2010-10-31",
            "close_approach_date_full": "2010-Oct-31 21:31",
            "epoch_date_close_approach": 1288560660000,
            "relative_velocity": {
                "kilometers_per_second": "13.2529777679",
                "kilometers_per_hour": "47710.7199643633",
                "miles_per_hour": "29645.5859689679"
            },
            "miss_distance": {
                "astronomical": "0.1261997844",
                "lunar": "49.0917161316",
                "kilometers": "18879218.940699228",
                "miles": "11731002.6759282264"
            },
            "orbiting_body": "Earth"
        },
        {
            "close_approach_date": "2010-12-15",
            "close_approach_date_full": "2010-Dec-15 09:56",
            "epoch_date_close_approach": 1292406960000,
            "relative_velocity": {
                "kilometers_per_second": "11.5230497261",
                "kilometers_per_hour": "41482.9790139046",
                "miles_per_hour": "25775.9099322786"
            },
            "miss_distance": {
                "astronomical": "0.0846895258",
                "lunar": "32.9442255362",
                "kilometers": "12669372.670990046",
                "miles": "7872383.1304967948"
            },
            "orbiting_body": "Venus"
        }
    ],
    "orbital_data": {
        "orbit_id": "7",
        "orbit_determination_date": "2017-04-06 08:56:29",
        "first_observation_date": "2010-09-16",
        "last_observation_date": "2010-10-08",
        "data_arc_in_days": 22,
        "observations_used": 32,
        "orbit_uncertainty": "7",
        "minimum_orbit_intersection": ".0290492",
        "jupiter_tisserand_invariant": "3.178",
        "epoch_osculation": "2459000.5",
        "eccentricity": ".6774149244774231",
        "semi_major_axis": "2.378694284413907",
        "inclination": "5.540030595784299",
        "ascending_node_longitude": "7.97152793655071",
        "orbital_period": "1340.004850552825",
        "perihelion_distance": ".7673312753827822",
        "perihelion_argument": "82.25164423411078",
        "aphelion_distance": "3.990057293445033",
        "perihelion_time": "2459544.806779451099",
        "mean_anomaly": "213.7688572384231",
        "mean_motion": ".2686557439336733",
        "equinox": "J2000",
        "orbit_class": {
            "orbit_class_type": "APO",
            "orbit_class_description": "Near-Earth asteroid orbits which cross the Earth’s orbit similar to that of 1862 Apollo",
            "orbit_class_range": "a (semi-major axis) > 1.0 AU; q (perihelion) < 1.017 AU"
        }
    },
    "is_sentry_object": false
}